{"type": "FeatureCollection", "features": [ {"type": "Feature", "properties": {"norad_id": 33905, "name": "COSMOS 2251 DEB", "group": "cosmos-2251-debris", "lat": 51.43804829900815, "lon": -18.700417924996806, "alt_km": 807.0265619858319, "timestamp": "2025-12-10T21:43:22.483987+00:00", "meta": {"OBJECT_NAME": "COSMOS 2251 DEB", "OBJECT_ID": "1993-036DJ", "EPOCH": "2025-12-10T08:39:00.347616", "MEAN_MOTION": 14.35372299, "ECCENTRICITY": 0.00590215, "INCLINATION": 73.8876, "RA_OF_ASC_NODE": 321.048, "ARG_OF_PERICENTER": 211.0415, "MEAN_ANOMALY": 270.248, "EPHEMERIS_TYPE": 0, "CLASSIFICATION_TYPE": "U", "NORAD_CAT_ID": 33905, "ELEMENT_SET_NO": 999, "REV_AT_EPOCH": 87653, "BSTAR": 0.001055691, "MEAN_MOTION_DOT": 3.063e-05, "MEAN_MOTION_DDOT": 0}, "tle": {"line1": "1 33905U 93036DJ  25344.36042069  .00003063  00000+0  10557-2 0  9990", "line2": "2 33905  73.8876 321.0480 0059021 211.0415 270.2480 14.35372299876537"}}, "geometry": {"type": "Point", "coordinates": [-18.700417924996806, 51.43804829900815]}}, {"type": "Feature", "properties": {"norad_id": 33906, "name": "COSMOS 2251 DEB", "group": "cosmos-2251-debris", "lat": 22.225433579869886, "lon": 138.2406856036207, "alt_km": 726.7704295142112, "timestamp": "2025-12-10T21:43:22.483997+00:00", "meta": {"OBJECT_NAME": "COSMOS 2251 DEB", "OBJECT_ID": "1993-036DK", "EPOCH": "2025-12-10T10:10:17.133024", "MEAN_MOTION": 14.57021412, "ECCENTRICITY": 0.00365902, "INCLINATION": 74.0309, "RA_OF_ASC_NODE": 325.874, "ARG_OF_PERICENTER": 355.6728, "MEAN_ANOMALY": 157.3337, "EPHEMERIS_TYPE": 0, "CLASSIFICATION_TYPE": "U", "NORAD_CAT_ID": 33906, "ELEMENT_SET_NO": 999, "REV_AT_EPOCH": 87974, "BSTAR": 0.0032683678, "MEAN_MOTION_DOT": 0.0001484, "MEAN_MOTION_DDOT": 0}, "tle": {"line1": "1 33906U 93036DK  25344.42380941  .00014840  00000+0  32684-2 0  9992", "line2": "2 33906  74.0309 325.8740 0036590 355.6728 157.3337 14.57021412879745"}}, "geometry": {"type": "Point", "coordinates": [138.2406856036207, 22.225433579869886]}}, {"type": "Feature", "properties": {"norad_id": 33907, "name": "COSMOS 2251 DEB", "group": "cosmos-2251-debris", "lat": -52.99507359571599, "lon": 14.716072846465606, "alt_km": 865.7026201889939, "timestamp": "2025-12-10T21:43:22.484007+00:00", "meta": {"OBJECT_NAME": "COSMOS 2251 DEB", "OBJECT_ID": "1993-036DL", "EPOCH": "2025-12-10T10:17:45.557664", "MEAN_MOTION": 14.30470945, "ECCENTRICITY": 0.01124102, "INCLINATION": 74.0703, "RA_OF_ASC_NODE": 37.8483, "ARG_OF_PERICENTER": 94.0425, "MEAN_ANOMALY": 279.6363, "EPHEMERIS_TYPE": 0, "CLASSIFICATION_TYPE": "U", "NORAD_CAT_ID": 33907, "ELEMENT_SET_NO": 999, "REV_AT_EPOCH": 86547, "BSTAR": 0.0023554643, "MEAN_MOTION_DOT": 6.551e-05, "MEAN_MOTION_DDOT": 0}, "tle": {"line1": "1 33907U 93036DL  25344.42899951  .00006551  00000+0  23555-2 0  9996", "line2": "2 33907  74.0703  37.8483 0112410  94.0425 279.6363 14.30470945865474"}}, "geometry": {"type": "Point", "coordinates": [14.716072846465606, -52.99507359571599]}}, {"type": "Feature", "properties": {"norad_id": 33908, "name": "COSMOS 2251 DEB", "group": "cosmos-2251-debris", "lat": 52.06964946120961, "lon": 7.1754276703784585, "alt_km": 910.4897765898586, "timestamp": "2025-12-10T21:43:22.484031+00:00", "meta": {"OBJECT_NAME": "COSMOS 2251 DEB", "OBJECT_ID": "1993-036DM", "EPOCH": "2025-12-10T14:17:12.507360", "MEAN_MOTION": 14.07313018, "ECCENTRICITY": 0.02232911, "INCLINATION": 73.8376, "RA_OF_ASC_NODE": 209.5709, "ARG_OF_PERICENTER": 233.4918, "MEAN_ANOMALY": 124.5471, "EPHEMERIS_TYPE": 0, "CLASSIFICATION_TYPE": "U", "NORAD_CAT_ID": 33908, "ELEMENT_SET_NO": 999, "REV_AT_EPOCH": 85443, "BSTAR": 0.0026774723, "MEAN_MOTION_DOT": 5.62e-05, "MEAN_MOTION_DDOT": 0}, "tle": {"line1": "1 33908U 93036DM  25344.59528365  .00005620  00000+0  26775-2 0  9996", "line2": "2 33908  73.8376 209.5709 0223291 233.4918 124.5471 14.07313018854436"}}, "geometry": {"type": "Point", "coordinates": [7.1754276703784585, 52.06964946120961]}}, {"type": "Feature", "properties": {"norad_id": 33911, "name": "COSMOS 2251 DEB", "group": "cosmos-2251-debris", "lat": 8.433803994239279, "lon": -16.997465577501124, "alt_km": 642.9649149478182, "timestamp": "2025-12-10T21:43:22.484045+00:00", "meta": {"OBJECT_NAME": "COSMOS 2251 DEB", "OBJECT_ID": "1993-036DQ", "EPOCH": "2025-12-09T22:50:33.719424", "MEAN_MOTION": 14.74720559, "ECCENTRICITY": 0.00143355, "INCLINATION": 74.0901, "RA_OF_ASC_NODE": 167.2817, "ARG_OF_PERICENTER": 109.4141, "MEAN_ANOMALY": 42.319, "EPHEMERIS_TYPE": 0, "CLASSIFICATION_TYPE": "U", "NORAD_CAT_ID": 33911, "ELEMENT_SET_NO": 999, "REV_AT_EPOCH": 88603, "BSTAR": 0.002829254, "MEAN_MOTION_DOT": 0.00018965, "MEAN_MOTION_DDOT": 0}, "tle": {"line1": "1 33911U 93036DQ  25343.95177916  .00018965  00000+0  28293-2 0  9994", "line2": "2 33911  74.0901 167.2817 0014335 109.4141  42.3190 14.74720559886036"}}, "geometry": {"type": "Point", "coordinates": [-16.997465577501124, 8.433803994239279]}}, {"type": "Feature", "properties": {"norad_id": 33912, "name": "COSMOS 2251 DEB", "group": "cosmos-2251-debris", "lat": -27.774827595255587, "lon": 21.853766161572157, "alt_km": 721.2903098303541, "timestamp": "2025-12-10T21:43:22.484056+00:00", "meta": {"OBJECT_NAME": "COSMOS 2251 DEB", "OBJECT_ID": "1993-036DR", "EPOCH": "2025-12-10T14:17:11.078304", "MEAN_MOTION": 14.51874782, "ECCENTRICITY": 0.00114619, "INCLINATION": 74.0335, "RA_OF_ASC_NODE": 193.7646, "ARG_OF_PERICENTER": 272.7323, "MEAN_ANOMALY": 117.4015, "EPHEMERIS_TYPE": 0, "CLASSIFICATION_TYPE": "U", "NORAD_CAT_ID": 33912, "ELEMENT_SET_NO": 999, "REV_AT_EPOCH": 88402, "BSTAR": 0.001011072, "MEAN_MOTION_DOT": 4.052e-05, "MEAN_MOTION_DDOT": 0}, "tle": {"line1": "1 33912U 93036DR  25344.59526711  .00004052  00000+0  10111-2 0  9999", "line2": "2 33912  74.0335 193.7646 0011461 272.7323 117.4015 14.51874782884025"}}, "geometry": {"type": "Point", "coordinates": [21.853766161572157, -27.774827595255587]}}, {"type": "Feature", "properties": {"norad_id": 33913, "name": "COSMOS 2251 DEB", "group": "cosmos-2251-debris", "lat": -40.66316665350396, "lon": 172.84605492092584, "alt_km": 706.4065331460542, "timestamp": "2025-12-10T21:43:22.484070+00:00", "meta": {"OBJECT_NAME": "COSMOS 2251 DEB", "OBJECT_ID": "1993-036DS", "EPOCH": "2025-12-10T00:55:42.093696", "MEAN_MOTION": 14.48468658, "ECCENTRICITY": 0.00481754, "INCLINATION": 74.0336, "RA_OF_ASC_NODE": 188.7058, "ARG_OF_PERICENTER": 291.7789, "MEAN_ANOMALY": 189.1791, "EPHEMERIS_TYPE": 0, "CLASSIFICATION_TYPE": "U", "NORAD_CAT_ID": 33913, "ELEMENT_SET_NO": 999, "REV_AT_EPOCH": 88418, "BSTAR": 0.00070018854, "MEAN_MOTION_DOT": 2.637e-05, "MEAN_MOTION_DDOT": 0}, "tle": {"line1": "1 33913U 93036DS  25344.03868164  .00002637  00000+0  70019-3 0  9991", "line2": "2 33913  74.0336 188.7058 0048175 291.7789 189.1791 14.48468658884188"}}, "geometry": {"type": "Point", "coordinates": [172.84605492092584, -40.66316665350396]}}, {"type": "Feature", "properties": {"norad_id": 33914, "name": "COSMOS 2251 DEB", "group": "cosmos-2251-debris", "lat": 61.02458863624408, "lon": 49.11766904636637, "alt_km": 857.7318927388324, "timestamp": "2025-12-10T21:43:22.484081+00:00", "meta": {"OBJECT_NAME": "COSMOS 2251 DEB", "OBJECT_ID": "1993-036DT", "EPOCH": "2025-12-10T11:28:31.290816", "MEAN_MOTION": 13.71982529, "ECCENTRICITY": 0.03013541, "INCLINATION": 74.0914, "RA_OF_ASC_NODE": 18.822, "ARG_OF_PERICENTER": 122.4118, "MEAN_ANOMALY": 357.8093, "EPHEMERIS_TYPE": 0, "CLASSIFICATION_TYPE": "U", "NORAD_CAT_ID": 33914, "ELEMENT_SET_NO": 999, "REV_AT_EPOCH": 84050, "BSTAR": 0.00060978461, "MEAN_MOTION_DOT": 7.46e-06, "MEAN_MOTION_DDOT": 0}, "tle": {"line1": "1 33914U 93036DT  25344.47813994  .00000746  00000+0  60978-3 0  9993", "line2": "2 33914  74.0914  18.8220 0301354 122.4118 357.8093 13.71982529840502"}}, "geometry": {"type": "Point", "coordinates": [49.11766904636637, 61.02458863624408]}}, {"type": "Feature", "properties": {"norad_id": 33915, "name": "COSMOS 2251 DEB", "group": "cosmos-2251-debris", "lat": 44.141656064095216, "lon": -158.6505751714392, "alt_km": 696.0586754021524, "timestamp": "2025-12-10T21:43:22.484091+00:00", "meta": {"OBJECT_NAME": "COSMOS 2251 DEB", "OBJECT_ID": "1993-036DU", "EPOCH": "2025-12-10T15:07:51.924576", "MEAN_MOTION": 14.35075768, "ECCENTRICITY": 0.01045027, "INCLINATION": 74.0442, "RA_OF_ASC_NODE": 37.9725, "ARG_OF_PERICENTER": 131.0935, "MEAN_ANOMALY": 23.9591, "EPHEMERIS_TYPE": 0, "CLASSIFICATION_TYPE": "U", "NORAD_CAT_ID": 33915, "ELEMENT_SET_NO": 999, "REV_AT_EPOCH": 87727, "BSTAR": 0.00060900645, "MEAN_MOTION_DOT": 1.822e-05, "MEAN_MOTION_DDOT": 0}, "tle": {"line1": "1 33915U 93036DU  25344.63046209  .00001822  00000+0  60901-3 0  9991", "line2": "2 33915  74.0442  37.9725 0104502 131.0935  23.9591 14.35075768877277"}}, "geometry": {"type": "Point", "coordinates": [-158.6505751714392, 44.141656064095216]}}, {"type": "Feature", "properties": {"norad_id": 33916, "name": "COSMOS 2251 DEB", "group": "cosmos-2251-debris", "lat": -1.3417186894515372, "lon": 43.21954919523249, "alt_km": 1195.126244901834, "timestamp": "2025-12-10T21:43:22.484101+00:00", "meta": {"OBJECT_NAME": "COSMOS 2251 DEB", "OBJECT_ID": "1993-036DV", "EPOCH": "2025-12-10T15:32:09.726720", "MEAN_MOTION": 13.68610208, "ECCENTRICITY": 0.03253878, "INCLINATION": 74.0529, "RA_OF_ASC_NODE": 44.0266, "ARG_OF_PERICENTER": 216.6125, "MEAN_ANOMALY": 310.1598, "EPHEMERIS_TYPE": 0, "CLASSIFICATION_TYPE": "U", "NORAD_CAT_ID": 33916, "ELEMENT_SET_NO": 999, "REV_AT_EPOCH": 83862, "BSTAR": 0.00070729968, "MEAN_MOTION_DOT": 8.56e-06, "MEAN_MOTION_DDOT": 0}, "tle": {"line1": "1 33916U 93036DV  25344.64733480  .00000856  00000+0  70730-3 0  9994", "line2": "2 33916  74.0529  44.0266 0325387 216.6125 310.1598 13.68610208838623"}}, "geometry": {"type": "Point", "coordinates": [43.21954919523249, -1.3417186894515372]}}]}